[{"OBJECT_NAME":"SMOS","OBJECT_ID":"2009-059A","EPOCH":"2026-04-01T09:30:35.868672","MEAN_MOTION":14.39776367,"ECCENTRICITY":9.48e-5,"INCLINATION":98.4434,"RA_OF_ASC_NODE":279.8481,"ARG_OF_PERICENTER":96.1243,"MEAN_ANOMALY":264.0053,"EPHEMERIS_TYPE":0,"CLASSIFICATION_TYPE":"U","NORAD_CAT_ID":36036,"ELEMENT_SET_NO":999,"REV_AT_EPOCH":86240,"BSTAR":0.00011329,"MEAN_MOTION_DOT":3.12e-6,"MEAN_MOTION_DDOT":0},{"OBJECT_NAME":"YAOGAN-7","OBJECT_ID":"2009-069A","EPOCH":"2026-04-01T09:11:34.581696","MEAN_MOTION":14.77928141,"ECCENTRICITY":0.0023317,"INCLINATION":98.0175,"RA_OF_ASC_NODE":337.6861,"ARG_OF_PERICENTER":288.2283,"MEAN_ANOMALY":71.639,"EPHEMERIS_TYPE":0,"CLASSIFICATION_TYPE":"U","NORAD_CAT_ID":36110,"ELEMENT_SET_NO":999,"REV_AT_EPOCH":87828,"BSTAR":0.00010059,"MEAN_MOTION_DOT":6.74e-6,"MEAN_MOTION_DDOT":0},{"OBJECT_NAME":"TANDEM-X","OBJECT_ID":"2010-030A","EPOCH":"2026-03-31T11:12:41.919840","MEAN_MOTION":15.19148445,"ECCENTRICITY":0.0001816,"INCLINATION":97.4465,"RA_OF_ASC_NODE":99.2803,"ARG_OF_PERICENTER":96.0958,"MEAN_ANOMALY":264.0484,"EPHEMERIS_TYPE":0,"CLASSIFICATION_TYPE":"U","NORAD_CAT_ID":36605,"ELEMENT_SET_NO":999,"REV_AT_EPOCH":87484,"BSTAR":7.2052e-5,"MEAN_MOTION_DOT":1.446e-5,"MEAN_MOTION_DDOT":0},{"OBJECT_NAME":"CARTOSAT-2B","OBJECT_ID":"2010-035A","EPOCH":"2026-04-01T14:25:27.249312","MEAN_MOTION":14.7857716,"ECCENTRICITY":0.0013188,"INCLINATION":98.0055,"RA_OF_ASC_NODE":142.6062,"ARG_OF_PERICENTER":74.7385,"MEAN_ANOMALY":285.5283,"EPHEMERIS_TYPE":0,"CLASSIFICATION_TYPE":"U","NORAD_CAT_ID":36795,"ELEMENT_SET_NO":999,"REV_AT_EPOCH":84853,"BSTAR":0.00011187,"MEAN_MOTION_DOT":7.67e-6,"MEAN_MOTION_DDOT":0},{"OBJECT_NAME":"YAOGAN-10","OBJECT_ID":"2010-038A","EPOCH":"2026-04-01T13:33:49.424832","MEAN_MOTION":14.85106678,"ECCENTRICITY":0.0001468,"INCLINATION":97.9049,"RA_OF_ASC_NODE":115.5677,"ARG_OF_PERICENTER":85.6361,"MEAN_ANOMALY":65.2579,"EPHEMERIS_TYPE":0,"CLASSIFICATION_TYPE":"U","NORAD_CAT_ID":36834,"ELEMENT_SET_NO":999,"REV_AT_EPOCH":84583,"BSTAR":0.0002904,"MEAN_MOTION_DOT":2.429e-5,"MEAN_MOTION_DDOT":0},{"OBJECT_NAME":"COSMO-SKYMED 4","OBJECT_ID":"2010-060A","EPOCH":"2026-04-01T11:33:43.353792","MEAN_MOTION":14.82156328,"ECCENTRICITY":0.0001521,"INCLINATION":97.8876,"RA_OF_ASC_NODE":276.1895,"ARG_OF_PERICENTER":83.6606,"MEAN_ANOMALY":276.478,"EPHEMERIS_TYPE":0,"CLASSIFICATION_TYPE":"U","NORAD_CAT_ID":37216,"ELEMENT_SET_NO":999,"REV_AT_EPOCH":83320,"BSTAR":0.0001599,"MEAN_MOTION_DOT":1.221e-5,"MEAN_MOTION_DDOT":0},{"OBJECT_NAME":"RESOURCESAT-2","OBJECT_ID":"2011-015A","EPOCH":"2026-04-01T05:35:12.208416","MEAN_MOTION":14.2237428,"ECCENTRICITY":0.0009663,"INCLINATION":98.7705,"RA_OF_ASC_NODE":159.1834,"ARG_OF_PERICENTER":108.3424,"MEAN_ANOMALY":251.8805,"EPHEMERIS_TYPE":0,"CLASSIFICATION_TYPE":"U","NORAD_CAT_ID":37387,"ELEMENT_SET_NO":999,"REV_AT_EPOCH":77524,"BSTAR":-0.00013545,"MEAN_MOTION_DOT":-3.46e-6,"MEAN_MOTION_DDOT":0},{"OBJECT_NAME":"HAIYANG-2A","OBJECT_ID":"2011-043A","EPOCH":"2026-04-01T07:13:12.120672","MEAN_MOTION":13.77150687,"ECCENTRICITY":0.0003032,"INCLINATION":99.3415,"RA_OF_ASC_NODE":95.5277,"ARG_OF_PERICENTER":232.2315,"MEAN_ANOMALY":127.8561,"EPHEMERIS_TYPE":0,"CLASSIFICATION_TYPE":"U","NORAD_CAT_ID":37781,"ELEMENT_SET_NO":999,"REV_AT_EPOCH":73608,"BSTAR":2.65e-5,"MEAN_MOTION_DOT":-1.8e-7,"MEAN_MOTION_DDOT":0},{"OBJECT_NAME":"RASAT","OBJECT_ID":"2011-044D","EPOCH":"2026-04-01T13:41:58.084224","MEAN_MOTION":14.68090687,"ECCENTRICITY":0.0021953,"INCLINATION":98.0552,"RA_OF_ASC_NODE":184.1533,"ARG_OF_PERICENTER":76.3812,"MEAN_ANOMALY":341.5892,"EPHEMERIS_TYPE":0,"CLASSIFICATION_TYPE":"U","NORAD_CAT_ID":37791,"ELEMENT_SET_NO":999,"REV_AT_EPOCH":78194,"BSTAR":0.0001416,"MEAN_MOTION_DOT":7.67e-6,"MEAN_MOTION_DDOT":0},{"OBJECT_NAME":"SRMSAT","OBJECT_ID":"2011-058D","EPOCH":"2026-04-01T12:48:23.294016","MEAN_MOTION":14.11556047,"ECCENTRICITY":0.0011955,"INCLINATION":19.9706,"RA_OF_ASC_NODE":163.4346,"ARG_OF_PERICENTER":80.3921,"MEAN_ANOMALY":41.6436,"EPHEMERIS_TYPE":0,"CLASSIFICATION_TYPE":"U","NORAD_CAT_ID":37841,"ELEMENT_SET_NO":999,"REV_AT_EPOCH":74697,"BSTAR":0.00010388,"MEAN_MOTION_DOT":4.56e-6,"MEAN_MOTION_DDOT":0},{"OBJECT_NAME":"PLEIADES 1A","OBJECT_ID":"2011-076F","EPOCH":"2026-04-01T12:15:03.441600","MEAN_MOTION":14.58559611,"ECCENTRICITY":0.0001445,"INCLINATION":98.2015,"RA_OF_ASC_NODE":167.6317,"ARG_OF_PERICENTER":76.5811,"MEAN_ANOMALY":53.1754,"EPHEMERIS_TYPE":0,"CLASSIFICATION_TYPE":"U","NORAD_CAT_ID":38012,"ELEMENT_SET_NO":999,"REV_AT_EPOCH":76081,"BSTAR":0.00010332,"MEAN_MOTION_DOT":4.35e-6,"MEAN_MOTION_DDOT":0},{"OBJECT_NAME":"ZIYUAN 1-02C (ZY 1-02C)","OBJECT_ID":"2011-079A","EPOCH":"2026-04-01T13:18:44.307936","MEAN_MOTION":14.38148446,"ECCENTRICITY":0.0006655,"INCLINATION":98.4135,"RA_OF_ASC_NODE":160.4491,"ARG_OF_PERICENTER":166.7363,"MEAN_ANOMALY":300.5921,"EPHEMERIS_TYPE":0,"CLASSIFICATION_TYPE":"U","NORAD_CAT_ID":38038,"ELEMENT_SET_NO":999,"REV_AT_EPOCH":74819,"BSTAR":0.00022874,"MEAN_MOTION_DOT":6.51e-6,"MEAN_MOTION_DDOT":0},{"OBJECT_NAME":"ARIRANG-3 (KOMPSAT-3)","OBJECT_ID":"2012-025B","EPOCH":"2026-04-01T12:36:41.571360","MEAN_MOTION":14.6213267,"ECCENTRICITY":0.0005554,"INCLINATION":98.1101,"RA_OF_ASC_NODE":50.3447,"ARG_OF_PERICENTER":9.8868,"MEAN_ANOMALY":350.2442,"EPHEMERIS_TYPE":0,"CLASSIFICATION_TYPE":"U","NORAD_CAT_ID":38338,"ELEMENT_SET_NO":999,"REV_AT_EPOCH":74014,"BSTAR":0.00013398,"MEAN_MOTION_DOT":6.27e-6,"MEAN_MOTION_DDOT":0},{"OBJECT_NAME":"EXACTVIEW-1 (ADS-1B)","OBJECT_ID":"2012-039C","EPOCH":"2026-04-01T13:33:10.925856","MEAN_MOTION":14.24960344,"ECCENTRICITY":0.0011378,"INCLINATION":98.9663,"RA_OF_ASC_NODE":207.2663,"ARG_OF_PERICENTER":37.3021,"MEAN_ANOMALY":322.8945,"EPHEMERIS_TYPE":0,"CLASSIFICATION_TYPE":"U","NORAD_CAT_ID":38709,"ELEMENT_SET_NO":999,"REV_AT_EPOCH":71179,"BSTAR":9.4643e-5,"MEAN_MOTION_DOT":1.75e-6,"MEAN_MOTION_DDOT":0},{"OBJECT_NAME":"SPOT 6","OBJECT_ID":"2012-047A","EPOCH":"2026-04-01T12:01:07.462848","MEAN_MOTION":14.5856037,"ECCENTRICITY":0.0001455,"INCLINATION":98.2182,"RA_OF_ASC_NODE":159.6869,"ARG_OF_PERICENTER":85.4172,"MEAN_ANOMALY":274.7193,"EPHEMERIS_TYPE":0,"CLASSIFICATION_TYPE":"U","NORAD_CAT_ID":38755,"ELEMENT_SET_NO":999,"REV_AT_EPOCH":72187,"BSTAR":0.00010342,"MEAN_MOTION_DOT":4.35e-6,"MEAN_MOTION_DDOT":0},{"OBJECT_NAME":"PLEIADES 1B","OBJECT_ID":"2012-068A","EPOCH":"2026-04-01T12:29:03.843168","MEAN_MOTION":14.58546895,"ECCENTRICITY":0.0001341,"INCLINATION":98.1985,"RA_OF_ASC_NODE":167.6165,"ARG_OF_PERICENTER":77.6654,"MEAN_ANOMALY":282.4695,"EPHEMERIS_TYPE":0,"CLASSIFICATION_TYPE":"U","NORAD_CAT_ID":39019,"ELEMENT_SET_NO":999,"REV_AT_EPOCH":70967,"BSTAR":0.00010351,"MEAN_MOTION_DOT":4.35e-6,"MEAN_MOTION_DDOT":0},{"OBJECT_NAME":"GOKTURK 2","OBJECT_ID":"2012-073A","EPOCH":"2026-04-01T12:25:46.927200","MEAN_MOTION":14.75465419,"ECCENTRICITY":9.97e-5,"INCLINATION":97.6873,"RA_OF_ASC_NODE":292.7707,"ARG_OF_PERICENTER":107.1098,"MEAN_ANOMALY":253.0221,"EPHEMERIS_TYPE":0,"CLASSIFICATION_TYPE":"U","NORAD_CAT_ID":39030,"ELEMENT_SET_NO":999,"REV_AT_EPOCH":71320,"BSTAR":0.00012943,"MEAN_MOTION_DOT":8.33e-6,"MEAN_MOTION_DDOT":0}]
