SMOS                    
1 36036U 09059A   26091.39624848  .00000312  00000+0  11329-3 0  9997
2 36036  98.4434 279.8481 0000948  96.1243 264.0053 14.39776367862400
YAOGAN-7                
1 36110U 09069A   26091.38303914  .00000674  00000+0  10059-3 0  9998
2 36110  98.0175 337.6861 0023317 288.2283  71.6390 14.77928141878289
TANDEM-X                
1 36605U 10030A   26090.46715185  .00001446  00000+0  72052-4 0  9992
2 36605  97.4465  99.2803 0001816  96.0958 264.0484 15.19148445874842
CARTOSAT-2B             
1 36795U 10035A   26091.60100983  .00000767  00000+0  11187-3 0  9994
2 36795  98.0055 142.6062 0013188  74.7385 285.5283 14.78577160848532
YAOGAN-10               
1 36834U 10038A   26091.56515538  .00002429  00000+0  29040-3 0  9996
2 36834  97.9049 115.5677 0001468  85.6361  65.2579 14.85106678845832
COSMO-SKYMED 4          
1 37216U 10060A   26091.48175178  .00001221  00000+0  15990-3 0  9997
2 37216  97.8876 276.1895 0001521  83.6606 276.4780 14.82156328833202
RESOURCESAT-2           
1 37387U 11015A   26091.23278019 -.00000346  00000+0 -13545-3 0  9991
2 37387  98.7705 159.1834 0009663 108.3424 251.8805 14.22374280775240
HAIYANG-2A              
1 37781U 11043A   26091.30083473 -.00000018  00000+0  26500-4 0  9997
2 37781  99.3415  95.5277 0003032 232.2315 127.8561 13.77150687736089
RASAT                   
1 37791U 11044D   26091.57081116  .00000767  00000+0  14160-3 0  9998
2 37791  98.0552 184.1533 0021953  76.3812 341.5892 14.68090687781940
SRMSAT                  
1 37841U 11058D   26091.53360294  .00000456  00000+0  10388-3 0  9995
2 37841  19.9706 163.4346 0011955  80.3921  41.6436 14.11556047746979
PLEIADES 1A             
1 38012U 11076F   26091.51045650  .00000435  00000+0  10332-3 0  9996
2 38012  98.2015 167.6317 0001445  76.5811  53.1754 14.58559611760816
ZIYUAN 1-02C (ZY 1-02C) 
1 38038U 11079A   26091.55467949  .00000651  00000+0  22874-3 0  9994
2 38038  98.4135 160.4491 0006655 166.7363 300.5921 14.38148446748195
ARIRANG-3 (KOMPSAT-3)   
1 38338U 12025B   26091.52548115  .00000627  00000+0  13398-3 0  9995
2 38338  98.1101  50.3447 0005554   9.8868 350.2442 14.62132670740146
EXACTVIEW-1 (ADS-1B)    
1 38709U 12039C   26091.56470979  .00000175  00000+0  94643-4 0  9999
2 38709  98.9663 207.2663 0011378  37.3021 322.8945 14.24960344711797
SPOT 6                  
1 38755U 12047A   26091.50078082  .00000435  00000+0  10342-3 0  9994
2 38755  98.2182 159.6869 0001455  85.4172 274.7193 14.58560370721873
PLEIADES 1B             
1 39019U 12068A   26091.52018337  .00000435  00000+0  10351-3 0  9990
2 39019  98.1985 167.6165 0001341  77.6654 282.4695 14.58546895709670
GOKTURK 2               
1 39030U 12073A   26091.51790425  .00000833  00000+0  12943-3 0  9994
2 39030  97.6873 292.7707 0000997 107.1098 253.0221 14.75465419713206
